OBJECT_NAME,OBJECT_ID,EPOCH,MEAN_MOTION,ECCENTRICITY,INCLINATION,RA_OF_ASC_NODE,ARG_OF_PERICENTER,MEAN_ANOMALY,EPHEMERIS_TYPE,CLASSIFICATION_TYPE,NORAD_CAT_ID,ELEMENT_SET_NO,REV_AT_EPOCH,BSTAR,MEAN_MOTION_DOT,MEAN_MOTION_DDOT
BEIDOU-2 G8 (C01),2019-027A,2026-06-13T13:50:24.021024,1.00272036,.00102764,1.6475,74.5026,282.3554,257.1766,0,U,44231,999,2604,0,-.237E-5,0
BEIDOU-3 IGSO-2 (C39),2019-035A,2026-06-13T14:12:59.719968,1.00267282,.00399332,55.2457,158.8942,216.5217,219.5102,0,U,44337,999,2563,0,-.57E-6,0
GPS BIII-2  (PRN 18),2019-056A,2026-06-12T15:50:54.242592,2.00569410,.00618671,55.6395,331.3227,197.5828,161.1492,0,U,44506,999,4997,0,-.7E-6,0
EUTELSAT 5 WEST B (EGNOS/PRN 121),2019-067A,2026-06-13T14:50:23.265312,1.00271929,.00028975,0.0625,358.4049,83.1786,37.9638,0,U,44624,999,2440,0,-.31E-6,0
BEIDOU-3 IGSO-3 (C40),2019-073A,2026-05-16T19:27:04.075776,1.00246251,.0042953,54.8566,281.2355,189.4588,170.3676,0,U,44709,999,2414,0,-.217E-5,0
BEIDOU-3 M22 (C44),2019-078A,2026-06-12T18:52:38.743392,1.86227380,.00064519,53.9404,299.9835,50.2403,309.7998,0,U,44793,999,4456,0,-.68E-6,0
BEIDOU-3 M21 (C43),2019-078B,2026-06-13T11:07:22.296864,1.86227756,.00042788,53.9128,299.9208,48.5109,311.5090,0,U,44794,999,4458,0,-.68E-6,0
BEIDOU-3 M20 (C42),2019-090B,2026-06-13T07:27:18.209088,1.86231453,.0015746,56.5565,62.9542,311.9209,232.5278,0,U,44865,999,4414,0,-.55E-6,0
BEIDOU-3 G2 (C60),2020-017A,2026-06-13T15:14:39.360192,1.00272457,.00021484,2.8559,47.2829,32.1520,131.2494,0,U,45344,999,2322,0,-.132E-5,0
COSMOS 2545 (760),2020-018A,2026-06-13T00:01:28.687872,2.13102608,.00081884,64.3580,312.5664,230.8878,129.0260,0,U,45358,999,4857,0,-.51E-6,0
GPS BIII-3  (PRN 23),2020-041A,2026-06-11T13:28:43.319136,2.00558626,.00636043,56.6657,29.1622,204.6361,19.3768,0,U,45854,999,4392,0,-.63E-6,0
GALAXY 30 (WAAS/PRN 135),2020-056C,2026-06-13T14:16:08.364864,1.00270191,.00020596,0.0179,0.2114,88.0552,262.6765,0,U,46114,999,2125,0,.48E-6,0
COSMOS 2547 (705K),2020-075A,2026-06-12T17:18:40.313088,2.13100258,.00092459,64.5993,192.6246,239.6069,120.3788,0,U,46805,999,4381,0,.119E-5,0
GPS BIII-4  (PRN 14),2020-078A,2026-06-13T07:29:48.268608,2.00564726,.00734343,53.9802,210.9360,207.1619,177.1494,0,U,46826,999,4143,0,.89E-6,0
GPS BIII-5  (PRN 11),2021-054A,2026-06-12T23:42:21.980160,2.00569035,.00253101,55.1767,332.6286,228.5784,107.5596,0,U,48859,999,3666,0,-.73E-6,0
GSAT0224 (GALILEO 28),2021-116B,2026-06-11T12:44:48.532128,1.70475859,.0000988,57.1633,341.8270,155.4898,205.7028,0,U,49810,999,2811,0,-.66E-6,0
COSMOS 2564 (761),2022-161A,2026-06-13T00:25:37.419744,2.13101986,.00121417,64.7413,192.8502,224.5907,135.3886,0,U,54377,999,2754,0,.118E-5,0
BEIDOU-3 G4 (C62),2023-066A,2026-06-13T15:31:39.631872,1.00274874,.00043109,0.4909,330.4881,181.9757,122.4029,0,U,56564,999,1135,0,-.27E-5,0
NVS-01 (IRNSS-1J),2023-076A,2026-06-13T15:28:47.654400,1.00266371,.00031756,2.1747,244.5154,37.0008,342.1620,0,U,56759,999,1108,0,-.323E-5,0
COSMOS 2569 (703K),2023-114A,2026-06-13T00:43:20.520768,2.13103647,.00108188,65.2998,72.7606,296.8248,63.0846,0,U,57517,999,2217,0,-.32E-6,0
